CCSDS_OMM_VERS = 2.0
CREATION_DATE  = 
ORIGINATOR     = 

OBJECT_NAME    = STARLINK-36450
OBJECT_ID      = 2026-002N
CENTER_NAME    = EARTH
REF_FRAME      = TEME
TIME_SYSTEM    = UTC
MEAN_ELEMENT_THEORY = SGP/SGP4

EPOCH          = 2026-02-02T09:50:36.019104
MEAN_MOTION    = 15.50569865
ECCENTRICITY   = .00031538
INCLINATION    = 42.9997
RA_OF_ASC_NODE = 165.3502
ARG_OF_PERICENTER = 235.5407
MEAN_ANOMALY   = 124.5156

EPHEMERIS_TYPE = 0
CLASSIFICATION_TYPE = U
NORAD_CAT_ID   = 67317
ELEMENT_SET_NO = 999
REV_AT_EPOCH   = 583
BSTAR          = .12829307E-2
MEAN_MOTION_DOT = .75636E-3
MEAN_MOTION_DDOT = 0

CCSDS_OMM_VERS = 2.0
CREATION_DATE  = 
ORIGINATOR     = 

OBJECT_NAME    = STARLINK-36498
OBJECT_ID      = 2026-002P
CENTER_NAME    = EARTH
REF_FRAME      = TEME
TIME_SYSTEM    = UTC
MEAN_ELEMENT_THEORY = SGP/SGP4

EPOCH          = 2026-02-02T17:33:22.434624
MEAN_MOTION    = 15.50574758
ECCENTRICITY   = .00011278
INCLINATION    = 42.9973
RA_OF_ASC_NODE = 163.4592
ARG_OF_PERICENTER = 281.8273
MEAN_ANOMALY   = 78.2461

EPHEMERIS_TYPE = 0
CLASSIFICATION_TYPE = U
NORAD_CAT_ID   = 67318
ELEMENT_SET_NO = 999
REV_AT_EPOCH   = 578
BSTAR          = .12630901E-2
MEAN_MOTION_DOT = .74454E-3
MEAN_MOTION_DDOT = 0

CCSDS_OMM_VERS = 2.0
CREATION_DATE  = 
ORIGINATOR     = 

OBJECT_NAME    = STARLINK-36470
OBJECT_ID      = 2026-002Q
CENTER_NAME    = EARTH
REF_FRAME      = TEME
TIME_SYSTEM    = UTC
MEAN_ELEMENT_THEORY = SGP/SGP4

EPOCH          = 2026-02-02T17:33:52.144992
MEAN_MOTION    = 15.50578985
ECCENTRICITY   = .00008288
INCLINATION    = 42.9960
RA_OF_ASC_NODE = 163.4642
ARG_OF_PERICENTER = 286.8039
MEAN_ANOMALY   = 73.2730

EPHEMERIS_TYPE = 0
CLASSIFICATION_TYPE = U
NORAD_CAT_ID   = 67319
ELEMENT_SET_NO = 999
REV_AT_EPOCH   = 578
BSTAR          = .14858843E-2
MEAN_MOTION_DOT = .87811E-3
MEAN_MOTION_DDOT = 0

CCSDS_OMM_VERS = 2.0
CREATION_DATE  = 
ORIGINATOR     = 

OBJECT_NAME    = STARLINK-36500
OBJECT_ID      = 2026-002R
CENTER_NAME    = EARTH
REF_FRAME      = TEME
TIME_SYSTEM    = UTC
MEAN_ELEMENT_THEORY = SGP/SGP4

EPOCH          = 2026-02-03T06:00:02.000160
MEAN_MOTION    = 15.43789446
ECCENTRICITY   = .00015307
INCLINATION    = 43.0005
RA_OF_ASC_NODE = 160.4702
ARG_OF_PERICENTER = 260.4424
MEAN_ANOMALY   = 101.0375

EPHEMERIS_TYPE = 0
CLASSIFICATION_TYPE = U
NORAD_CAT_ID   = 67320
ELEMENT_SET_NO = 999
REV_AT_EPOCH   = 594
BSTAR          = -.49076911E-1
MEAN_MOTION_DOT = -.2024146E-1
MEAN_MOTION_DDOT = 0

CCSDS_OMM_VERS = 2.0
CREATION_DATE  = 
ORIGINATOR     = 

OBJECT_NAME    = STARLINK-36462
OBJECT_ID      = 2026-002S
CENTER_NAME    = EARTH
REF_FRAME      = TEME
TIME_SYSTEM    = UTC
MEAN_ELEMENT_THEORY = SGP/SGP4

EPOCH          = 2026-02-03T06:00:02.000160
MEAN_MOTION    = 15.48062370
ECCENTRICITY   = .00014835
INCLINATION    = 42.9997
RA_OF_ASC_NODE = 160.4202
ARG_OF_PERICENTER = 261.1035
MEAN_ANOMALY   = 120.1188

EPHEMERIS_TYPE = 0
CLASSIFICATION_TYPE = U
NORAD_CAT_ID   = 67321
ELEMENT_SET_NO = 999
REV_AT_EPOCH   = 588
BSTAR          = -.41507153E-1
MEAN_MOTION_DOT = -.199005E-1
MEAN_MOTION_DDOT = 0

CCSDS_OMM_VERS = 2.0
CREATION_DATE  = 
ORIGINATOR     = 

OBJECT_NAME    = STARLINK-36434
OBJECT_ID      = 2026-002T
CENTER_NAME    = EARTH
REF_FRAME      = TEME
TIME_SYSTEM    = UTC
MEAN_ELEMENT_THEORY = SGP/SGP4

EPOCH          = 2026-02-03T06:00:02.000160
MEAN_MOTION    = 15.46064331
ECCENTRICITY   = .00013911
INCLINATION    = 42.9998
RA_OF_ASC_NODE = 160.4388
ARG_OF_PERICENTER = 274.8523
MEAN_ANOMALY   = 98.8462

EPHEMERIS_TYPE = 0
CLASSIFICATION_TYPE = U
NORAD_CAT_ID   = 67322
ELEMENT_SET_NO = 999
REV_AT_EPOCH   = 588
BSTAR          = -.44576106E-1
MEAN_MOTION_DOT = -.1992384E-1
MEAN_MOTION_DDOT = 0

CCSDS_OMM_VERS = 2.0
CREATION_DATE  = 
ORIGINATOR     = 

OBJECT_NAME    = STARLINK-36497
OBJECT_ID      = 2026-002U
CENTER_NAME    = EARTH
REF_FRAME      = TEME
TIME_SYSTEM    = UTC
MEAN_ELEMENT_THEORY = SGP/SGP4

EPOCH          = 2026-02-03T00:00:02.000160
MEAN_MOTION    = 15.50602203
ECCENTRICITY   = .00017125
INCLINATION    = 43.0002
RA_OF_ASC_NODE = 161.8709
ARG_OF_PERICENTER = 269.1489
MEAN_ANOMALY   = 159.2595

EPHEMERIS_TYPE = 0
CLASSIFICATION_TYPE = U
NORAD_CAT_ID   = 67323
ELEMENT_SET_NO = 999
REV_AT_EPOCH   = 590
BSTAR          = -.14300149E-2
MEAN_MOTION_DOT = -.83417E-3
MEAN_MOTION_DDOT = 0

CCSDS_OMM_VERS = 2.0
CREATION_DATE  = 
ORIGINATOR     = 

OBJECT_NAME    = STARLINK-36471
OBJECT_ID      = 2026-002V
CENTER_NAME    = EARTH
REF_FRAME      = TEME
TIME_SYSTEM    = UTC
MEAN_ELEMENT_THEORY = SGP/SGP4

EPOCH          = 2026-02-02T17:30:24.300288
MEAN_MOTION    = 15.50593500
ECCENTRICITY   = .00022658
INCLINATION    = 42.9986
RA_OF_ASC_NODE = 163.4433
ARG_OF_PERICENTER = 274.8000
MEAN_ANOMALY   = 85.2601

EPHEMERIS_TYPE = 0
CLASSIFICATION_TYPE = U
NORAD_CAT_ID   = 67324
ELEMENT_SET_NO = 999
REV_AT_EPOCH   = 572
BSTAR          = .1412625E-2
MEAN_MOTION_DOT = .83465E-3
MEAN_MOTION_DDOT = 0

CCSDS_OMM_VERS = 2.0
CREATION_DATE  = 
ORIGINATOR     = 

OBJECT_NAME    = STARLINK-36473
OBJECT_ID      = 2026-002W
CENTER_NAME    = EARTH
REF_FRAME      = TEME
TIME_SYSTEM    = UTC
MEAN_ELEMENT_THEORY = SGP/SGP4

EPOCH          = 2026-02-03T00:00:02.000160
MEAN_MOTION    = 15.50605841
ECCENTRICITY   = .00017237
INCLINATION    = 43.0003
RA_OF_ASC_NODE = 161.8657
ARG_OF_PERICENTER = 269.0556
MEAN_ANOMALY   = 161.2681

EPHEMERIS_TYPE = 0
CLASSIFICATION_TYPE = U
NORAD_CAT_ID   = 67325
ELEMENT_SET_NO = 999
REV_AT_EPOCH   = 599
BSTAR          = -.14796177E-2
MEAN_MOTION_DOT = -.86278E-3
MEAN_MOTION_DDOT = 0

CCSDS_OMM_VERS = 2.0
CREATION_DATE  = 
ORIGINATOR     = 

OBJECT_NAME    = STARLINK-36430
OBJECT_ID      = 2026-002X
CENTER_NAME    = EARTH
REF_FRAME      = TEME
TIME_SYSTEM    = UTC
MEAN_ELEMENT_THEORY = SGP/SGP4

EPOCH          = 2026-02-03T06:00:02.000160
MEAN_MOTION    = 15.50498456
ECCENTRICITY   = .00015392
INCLINATION    = 43.0001
RA_OF_ASC_NODE = 160.3880
ARG_OF_PERICENTER = 261.2264
MEAN_ANOMALY   = 132.0760

EPHEMERIS_TYPE = 0
CLASSIFICATION_TYPE = U
NORAD_CAT_ID   = 67326
ELEMENT_SET_NO = 999
REV_AT_EPOCH   = 603
BSTAR          = .16716066E-2
MEAN_MOTION_DOT = .98685E-3
MEAN_MOTION_DDOT = 0

CCSDS_OMM_VERS = 2.0
CREATION_DATE  = 
ORIGINATOR     = 

OBJECT_NAME    = STARLINK-36501
OBJECT_ID      = 2026-002Y
CENTER_NAME    = EARTH
REF_FRAME      = TEME
TIME_SYSTEM    = UTC
MEAN_ELEMENT_THEORY = SGP/SGP4

EPOCH          = 2026-02-02T17:29:54.680640
MEAN_MOTION    = 15.50611315
ECCENTRICITY   = .0002241
INCLINATION    = 42.9999
RA_OF_ASC_NODE = 163.4398
ARG_OF_PERICENTER = 295.8615
MEAN_ANOMALY   = 64.2014

EPHEMERIS_TYPE = 0
CLASSIFICATION_TYPE = U
NORAD_CAT_ID   = 67327
ELEMENT_SET_NO = 999
REV_AT_EPOCH   = 572
BSTAR          = .19773309E-2
MEAN_MOTION_DOT = .117555E-2
MEAN_MOTION_DDOT = 0

CCSDS_OMM_VERS = 2.0
CREATION_DATE  = 
ORIGINATOR     = 

OBJECT_NAME    = STARLINK-36489
OBJECT_ID      = 2026-002Z
CENTER_NAME    = EARTH
REF_FRAME      = TEME
TIME_SYSTEM    = UTC
MEAN_ELEMENT_THEORY = SGP/SGP4

EPOCH          = 2026-02-02T17:28:56.299296
MEAN_MOTION    = 15.50511889
ECCENTRICITY   = .00008336
INCLINATION    = 42.9970
RA_OF_ASC_NODE = 163.4355
ARG_OF_PERICENTER = 288.2688
MEAN_ANOMALY   = 71.8082

EPHEMERIS_TYPE = 0
CLASSIFICATION_TYPE = U
NORAD_CAT_ID   = 67328
ELEMENT_SET_NO = 999
REV_AT_EPOCH   = 588
BSTAR          = .25407516E-3
MEAN_MOTION_DOT = .14556E-3
MEAN_MOTION_DDOT = 0

