STARLINK-36450          
1 67317U 26002N   26033.41013911  .00075636  00000+0  12829-2 0  9998
2 67317  42.9997 165.3502 0003153 235.5407 124.5156 15.50569865  5836
STARLINK-36498          
1 67318U 26002P   26033.73150966  .00074454  00000+0  12631-2 0  9994
2 67318  42.9973 163.4592 0001127 281.8273  78.2461 15.50574758  5788
STARLINK-36470          
1 67319U 26002Q   26033.73185353  .00087811  00000+0  14859-2 0  9998
2 67319  42.9960 163.4642 0000828 286.8039  73.2730 15.50578985  5783
STARLINK-36500          
1 67320U 26002R   26034.25002315 -.02024146  00000+0 -49077-1 0  9999
2 67320  43.0005 160.4702 0001530 260.4424 101.0375 15.43789446  5949
STARLINK-36462          
1 67321U 26002S   26034.25002315 -.01990050  00000+0 -41507-1 0  9995
2 67321  42.9997 160.4202 0001483 261.1035 120.1188 15.48062370  5888
STARLINK-36434          
1 67322U 26002T   26034.25002315 -.01992384  00000+0 -44576-1 0  9997
2 67322  42.9998 160.4388 0001391 274.8523  98.8462 15.46064331  5889
STARLINK-36497          
1 67323U 26002U   26034.00002315 -.00083417  00000+0 -14300-2 0  9991
2 67323  43.0002 161.8709 0001712 269.1489 159.2595 15.50602203  5908
STARLINK-36471          
1 67324U 26002V   26033.72944792  .00083465  00000+0  14126-2 0  9991
2 67324  42.9986 163.4433 0002265 274.8000  85.2601 15.50593500  5721
STARLINK-36473          
1 67325U 26002W   26034.00002315 -.00086278  00000+0 -14796-2 0  9990
2 67325  43.0003 161.8657 0001723 269.0556 161.2681 15.50605841  5998
STARLINK-36430          
1 67326U 26002X   26034.25002315  .00098685  00000+0  16716-2 0  9995
2 67326  43.0001 160.3880 0001539 261.2264 132.0760 15.50498456  6036
STARLINK-36501          
1 67327U 26002Y   26033.72910510  .00117555  00000+0  19773-2 0  9996
2 67327  42.9999 163.4398 0002241 295.8615  64.2014 15.50611315  5727
STARLINK-36489          
1 67328U 26002Z   26033.72842939  .00014556  00000+0  25408-3 0  9996
2 67328  42.9970 163.4355 0000833 288.2688  71.8082 15.50511889  5882
